#dP2021  7 26  0  0  0.00000000      96 __u+U ITR00 FIT  IAC
## 2168  86400.00000000   900.00000000 59421 0.0000000000000
+  128   C01C02C03C04C05C06C07C08C09C10C11C12C13C14C16C19C20
+        C21C22C23C24C25C26C27C28C29C30C32C33C34C35C36C37C38
+        C39C40C41C42C43C44C45C46C59C60E01E02E03E04E05E07E08
+        E09E11E12E13E14E15E18E19E21E24E25E26E27E30E31E33E36
+        G01G02G03G04G05G06G07G08G09G10G11G12G13G14G15G16G17
+        G18G19G20G21G22G23G24G25G26G27G28G29G30G31G32J01J02
+        J03J07R01R02R03R04R05R06R07R08R09R10R11R12R13R14R15
+        R16R17R18R19R20R21R22R23R24  0  0  0  0  0  0  0  0
++        13 13 13 13 13 10  9  9  9  9  9  9  9  9  9  8  8
++         8  8  8  8  8  8  8  8  8  8  8  8  8  8  8  8  9
++         9  9  8  8  8  8  8  8  0 13  5  4  4  5  5  4  4
++         5  4  4  4  5  4  5  4  4  5  5  5  4  4  4  6  5
++         3  4  4  4  4  3  4  4  4  4  4  4  4  4  4  4  4
++         4  4  4  4  4  4  3  4  4  4  4  4  4  4  4  9  8
++         8 16  7  6  6  6  6 13  6  6  6 13  8  6  7  6  6
++         7  6  6  8  7  6  8 13  6  0  0  0  0  0  0  0  0
%c M  cc GPS ccc cccc cccc cccc cccc ccccc ccccc ccccc ccccc
%c cc cc ccc ccc cccc cccc cccc cccc ccccc ccccc ccccc ccccc
%f  0.0000000  0.000000000  0.00000000000  0.000000000000000
%f  0.0000000  0.000000000  0.00000000000  0.000000000000000
%i    0    0    0    0      0      0      0      0         0
%i    0    0    0    0      0      0      0      0         0
/* INFORMATION & ANALYSIS CENTER (IAC)            RAPID DATA
/* S/V CLOCKS ARE ALIGNED TO GNSS TIME                      
/* G:C1WC2W R:C1PC2P E:C1XC5X C:C2IC6I J:C1CC2S             
/* PCV:IGS14_2163 OL/AL:FES2004  NONE     YN ORB:CoN CLK:CoN
*  2021 07 26  7 30  0.00000000
PC01 -34319.360085  24449.806521    -19.805986   -237.343871
PC02   4355.221977  41952.496498    750.565210    477.146164
PC03 -14837.870158  39437.255042   1310.640978   -430.434466
PC04 -39629.180573  14350.609340    188.383647    -88.008551
PC05  21860.705297  36028.734644    881.002197    -29.167624
PC06 -20614.169335  36890.399261  -3444.733100    673.000381
PC07  -7452.698968  30219.522506 -27904.520922     80.577978
PC08 -18525.998436  18832.304648  32851.214826   -909.984522
PC09 -10666.348722  36962.902368 -17456.163176    345.345959
PC10   4031.287484  36257.977457 -20480.410902    -14.893431
PC11  17799.146315     81.226661  21560.162059    479.776645
PC12   5216.490020  16784.245275  21695.437966    800.296419
PC13  -3505.177694  22572.861797  35519.334638    350.410199
PC14  18404.273676  11011.858081 -17800.098632    773.669288
PC16 -18682.774923  37485.202254  -5693.780860   -896.446688
PC19 -16937.431527   -395.811475  22202.287519    923.037966
PC20 -17249.301228 -18375.306611  12031.645417   -834.941615
PC21   7160.334421  26300.903531   5930.992089   -936.983444
PC22  -6830.767652  18399.410081  19826.328954   -948.711339
PC23  15839.445034 -12210.816676  19473.388753   -965.912044
PC24  22452.148556  11343.354165 -12101.814440   -958.023050
PC25  27223.578217  -1778.675143   5916.438938   -880.115914
PC26   6071.604538  16251.782013 -21867.211612    873.459791
PC27   2714.288266 -22393.207173 -16444.329597    570.495439
PC28  16743.022488 -22331.541109   -190.172091    -46.138977
PC29 -20525.921027   9903.930956 -16114.521144    424.622567
PC30 -12813.286250  -9404.188966 -22946.376803    475.325876
PC32  -7372.783843 -26260.538868  -5917.041966   -926.315194
PC33  16965.497482    351.560643 -22146.088465   -947.469144
PC34  13329.099241   8722.391430  22898.982995   -619.566448
PC35 -16176.003129  22758.587470   -201.611758   -169.614257
PC36 -27336.218505    857.266283  -5521.324437   -736.303456
PC37  -4569.124216 -16426.850634  22112.940029   -863.011500
PC38 -16810.031897  21598.443920  32032.106062    164.249909
PC39 -15730.871007  38723.363606  -6131.537033     32.621012
PC40    125.870442  34262.486083 -24440.699399    184.159648
PC41   6993.321121 -18196.988945 -19919.903686   -966.713736
PC42  17031.212398  18974.174802 -11279.803662   -923.765261
PC43  20568.308097  -9243.145468  16416.890208   -838.570740
PC44  -2102.483254  22633.303721  16194.221426    308.546164
PC45 -15649.080860  12194.078386 -19607.102406    503.531594
PC46 -23163.434827 -10710.834656  11267.552584    161.660052
PC59      0.000000      0.000000      0.000000 999999.999999
PC60   7259.788221  41509.805588    657.411176     -0.495188
PE01 -26117.308670  -9360.543068 -10311.456617  -1158.080648
PE02  26113.536107   9246.993997  10446.564167    235.512523
PE03  16856.562727   3261.064119 -24110.112173   -456.751852
PE04 -14328.140010  18202.904939  18432.778688   -821.352026
PE05   9524.137386  23196.483711 -15720.284144   -262.254606
PE07   3258.573353 -29377.482850  -1711.919418   -566.158112
PE08  13990.813345 -18621.090318 -18272.334007   5964.355340
PE09  -3003.903265  29396.814912   1561.028062   5587.744701
PE11  -9107.267695  19410.618557  20395.958767   5667.437829
PE12 -25034.495463  15309.351726   3928.033864   5092.322908
PE13   9517.296505 -19433.200253 -20200.651532    419.491989
PE14  -3333.454308 -28145.416279 -14209.581191  -1513.312224
PE15  24965.670035 -15398.604894  -3976.118451    801.456197
PE18  -3523.625620  23862.024988   5179.359608  -1658.959019
PE19 -16348.904118  -5960.888702  23953.082848    336.257786
PE21 -20388.976622 -20045.604571   7668.616994   -678.363105
PE24   1532.939019  19389.162217 -22323.482099  -1028.225662
PE25  20257.426368  20100.681221  -7845.595511   -541.189855
PE26 -12390.729805 -11665.717558 -24222.273858   1535.713307
PE27  -2583.382571 -19668.468798  21976.962419    -83.892771
PE30  17506.150104  -6829.939432  22869.929748   2753.657634
PE31 -16599.895475   7726.139250 -23245.304743   -483.678411
PE33 -25676.026367   2303.421229 -14553.058032   -467.158454
PE36  11483.421592  12019.956164  24486.050567   -239.596067
PG01  -1974.228171 -14766.141952 -22242.286131    616.843070
PG02 -20083.865343  14727.074087   9972.811285   -622.150279
PG03  -8753.876516 -21316.802898 -13396.181416   -232.480554
PG04   -639.999744 -24340.214090  10544.501660   -203.039959
PG05  -2256.070608  17001.103869  20073.688360    -49.079638
PG06 -25750.146713   6557.007874   -976.528878     45.747654
PG07 -17400.207502  -8943.114252  18546.959176    211.010865
PG08   5973.776578 -25706.064305    -31.072751    -30.197498
PG09  -9485.946749 -16614.388217  18353.224289   -356.829172
PG10  21653.915626   8786.621629 -12763.674393   -169.583400
PG11 -21945.327059  11599.807024   9427.711403     23.728365
PG12   6885.390969  21851.342536 -13802.834923    -73.885373
PG13 -13251.295467  22097.174563   5992.446964    162.688000
PG14 -21246.083725  -8879.218437 -13281.516205     38.523240
PG15  -2809.589295  26215.085566   -796.245958   -132.894507
PG16   9410.658975 -11664.182586  21649.341419   -363.229606
PG17 -14529.431578  -2153.654963 -21702.561217    479.554810
PG18  19243.254614   7023.685092  16935.633047    338.185158
PG19 -16663.814099   7197.325308 -19618.413750     31.244680
PG20 -13161.485846   9436.674925  20983.208131    519.989201
PG21   6556.330111 -16534.017628 -18856.622488    133.520934
PG22  -2494.086214 -19085.979269 -18205.602150   -554.184128
PG23  20595.353766  16641.183557  -2503.536466     79.459824
PG24  -2563.475725  16980.131804 -20423.399697    187.727509
PG25  16516.539808  20516.062076  -4666.965357    180.091902
PG26  17866.605452  -3079.987574  19438.028662    115.092360
PG27  12118.338790 -21255.743384   9683.099495   -168.669834
PG28 -19135.184901  -4289.167643 -17277.151451    531.284786
PG29   6430.668853  18451.256491  17911.411078   -386.197565
PG30 -25065.631755   -532.741413   9190.459183   -455.086944
PG31  25809.384272  -7221.464681    828.486348   -130.735321
PG32  15732.874148  -1504.069931 -21207.429222     11.919103
PJ01 -26158.605063  24906.430551  26726.969870   -424.150580
PJ02 -26651.254411  15029.214408 -24497.521564     -1.047475
PJ03 -26253.557748  32682.611804    557.433393     -0.355660
PJ07 -25384.939140  33659.916210    -16.114160      0.010182
PR01  12079.144608  15358.953479 -16387.474102     82.860576
PR02   9673.768383  -5921.569012 -22800.992146    487.438787
PR03   1803.204212 -21262.593477 -13892.523714     40.188114
PR04  -6931.264772 -24400.329760   2692.278837     97.477910
PR05 -11739.204382 -14006.200830  17796.384533     76.010244
PR06  -9319.820673   7360.304630  22568.146048    202.166791
PR07  -1500.387794  21680.484571  13429.982601    -41.895516
PR08   6951.853652  24408.530553  -2617.662690    -60.101077
PR09 -21390.312590   1005.020598 -13898.062402      4.838331
PR10  -7389.672551   9138.302432 -22633.383888    -73.273983
PR11  11794.088835  12575.541714 -18777.760424     45.097771
PR12  23808.920846   8621.084626  -3111.820983    248.404090
PR13  21706.923883   -450.913859  13375.375531    -58.271204
PR14   6295.805255  -9621.263728  22785.234907     66.917889
PR15 -12138.499855 -12844.415465  18421.927685    102.474116
PR16 -24203.053705  -7577.846886   1999.857637    -18.497131
PR17  14928.594378 -19002.621240  -8234.828579    444.309605
PR18   2002.069813 -14549.599681 -20834.983971     84.729545
PR19 -11255.945164  -3508.082703 -22625.615657   -152.963255
PR20 -20312.193353  11860.728319  -9914.868287    -53.083345
PR21 -14224.070676  18922.763904   9452.490126   -226.704282
PR22  -1326.953068  14034.475013  21260.673029   -124.581888
PR23  15704.100350  -2240.799514  19961.856022    -10.193414
PR24  20270.345511 -12498.612738   9177.222953     51.966390
EOF
